<?xml version='1.0' encoding='utf-8'?>
<kml xmlns="http://www.opengis.net/kml/2.2">
  <Document>
    <Placemark>
      <name>Circuito</name>
      <LineString>
        <extrude>1</extrude>
        <tessellate>1</tessellate>
        <coordinates>18.20056,47.00750,109
18.19861,47.00500,108
18.19861,47.00583,111
18.19750,47.00611,111
18.19639,47.00472,110
18.19889,47.00278,110
18.20306,47.00806,109
18.20389,47.00750,109
18.20639,47.00778,108
18.20861,47.00361,110
18.20917,47.00333,110
18.20944,47.00361,109
18.20972,47.00194,110
18.21111,47.00250,109
18.20972,47.00722,109
18.20472,47.00917,109
18.20500,47.00972,108
18.20389,47.01056,110
18.20194,47.01028,110
18.20194,47.00944,109
18.20056,47.00750,109</coordinates>
        <altitudeMode>relativeToGround</altitudeMode>
      </LineString>
      <Style>
        <LineStyle>
          <color>#ff0000ff</color>
          <width>4</width>
        </LineStyle>
      </Style>
    </Placemark>
  </Document>
</kml>